[{"OBJECT_NAME":"SPIRIT","OBJECT_ID":"2023-185G","EPOCH":"2026-03-09T23:35:10.605696","MEAN_MOTION":15.62567378,"ECCENTRICITY":0.00056946,"INCLINATION":97.3383,"RA_OF_ASC_NODE":148.9305,"ARG_OF_PERICENTER":182.4222,"MEAN_ANOMALY":177.701,"EPHEMERIS_TYPE":0,"CLASSIFICATION_TYPE":"U","NORAD_CAT_ID":58468,"ELEMENT_SET_NO":999,"REV_AT_EPOCH":12699,"BSTAR":0.00094806213,"MEAN_MOTION_DOT":0.00085183,"MEAN_MOTION_DDOT":0},{"OBJECT_NAME":"ARICA","OBJECT_ID":"2021-102J","EPOCH":"2026-03-09T17:22:30.264960","MEAN_MOTION":15.61729318,"ECCENTRICITY":0.0007799,"INCLINATION":97.3164,"RA_OF_ASC_NODE":130.2851,"ARG_OF_PERICENTER":139.1448,"MEAN_ANOMALY":221.0396,"EPHEMERIS_TYPE":0,"CLASSIFICATION_TYPE":"U","NORAD_CAT_ID":49403,"ELEMENT_SET_NO":999,"REV_AT_EPOCH":24003,"BSTAR":0.00092271929,"MEAN_MOTION_DOT":0.00080266,"MEAN_MOTION_DDOT":0}]
